{
  "norad_id": 67097,
  "name": "STARLINK-36222",
  "history": [
    {
      "epoch": "2026-03-28T21:54:05.194368Z",
      "apogee_km": 573.6283687067071,
      "perigee_km": 570.3675043971753,
      "latitude_deg": -2.3955134584077274e-05,
      "longitude_deg": 171.26025190006368,
      "height_km": 574.3950210436318,
      "semi_major_axis_km": 6950.134936551941,
      "eccentricity": 0.00023459,
      "inclination_deg": 70.0014,
      "raan_deg": 326.1081,
      "arg_perigee_deg": 271.0477,
      "mean_anomaly_deg": 89.0413,
      "mean_motion_rev_day": 14.98348741
    },
    {
      "epoch": "2026-03-28T23:30:13.235904Z",
      "apogee_km": 573.6507466877983,
      "perigee_km": 570.3452624796182,
      "latitude_deg": -5.0647033721735085e-05,
      "longitude_deg": 146.9927344102061,
      "height_km": 574.4207543585718,
      "semi_major_axis_km": 6950.135004583708,
      "eccentricity": 0.0002378,
      "inclination_deg": 70.0012,
      "raan_deg": 325.9399,
      "arg_perigee_deg": 270.1447,
      "mean_anomaly_deg": 89.9439,
      "mean_motion_rev_day": 14.98348719
    },
    {
      "epoch": "2026-03-30T01:08:22.143264Z",
      "apogee_km": 573.7791846519376,
      "perigee_km": 570.2888087773872,
      "latitude_deg": -3.2513788059175105e-05,
      "longitude_deg": 118.70930232087476,
      "height_km": 574.6079298522671,
      "semi_major_axis_km": 6950.170996714662,
      "eccentricity": 0.0002511,
      "inclination_deg": 70.001,
      "raan_deg": 323.2464,
      "arg_perigee_deg": 265.172,
      "mean_anomaly_deg": 94.9152,
      "mean_motion_rev_day": 14.9833708
    },
    {
      "epoch": "2026-03-30T01:08:22.144128Z",
      "apogee_km": 573.7790425553467,
      "perigee_km": 570.2889446891895,
      "latitude_deg": -3.4673025452861097e-05,
      "longitude_deg": 118.7093979294553,
      "height_km": 574.6079150602379,
      "semi_major_axis_km": 6950.170993622268,
      "eccentricity": 0.00025108,
      "inclination_deg": 70.001,
      "raan_deg": 323.2465,
      "arg_perigee_deg": 265.172,
      "mean_anomaly_deg": 94.9152,
      "mean_motion_rev_day": 14.98337081
    },
    {
      "epoch": "2026-03-30T09:09:02.708640Z",
      "apogee_km": 573.5385111771393,
      "perigee_km": 570.5529906746515,
      "latitude_deg": -4.415572705456965e-05,
      "longitude_deg": -2.6304349986818045,
      "height_km": 574.570298229936,
      "semi_major_axis_km": 6950.182750925895,
      "eccentricity": 0.00021478,
      "inclination_deg": 70.0022,
      "raan_deg": 322.4047,
      "arg_perigee_deg": 266.2431,
      "mean_anomaly_deg": 93.8482,
      "mean_motion_rev_day": 14.98333279
    },
    {
      "epoch": "2026-03-30T21:58:07.196448Z",
      "apogee_km": 573.6139933593549,
      "perigee_km": 570.484602476854,
      "latitude_deg": 6.361845779978074e-05,
      "longitude_deg": 163.22769243463202,
      "height_km": 574.5470177866371,
      "semi_major_axis_km": 6950.186297918104,
      "eccentricity": 0.00022513,
      "inclination_deg": 70.001,
      "raan_deg": 321.0579,
      "arg_perigee_deg": 267.4004,
      "mean_anomaly_deg": 92.6898,
      "mean_motion_rev_day": 14.98332132
    },
    {
      "epoch": "2026-03-31T13:59:27.865824Z",
      "apogee_km": 573.7045462877577,
      "perigee_km": 570.3684630055268,
      "latitude_deg": 3.359818145778751e-05,
      "longitude_deg": -79.44965683660644,
      "height_km": 574.5747685600172,
      "semi_major_axis_km": 6950.173504646642,
      "eccentricity": 0.00024,
      "inclination_deg": 70.0006,
      "raan_deg": 319.3747,
      "arg_perigee_deg": 266.1717,
      "mean_anomaly_deg": 93.9168,
      "mean_motion_rev_day": 14.98336269
    },
    {
      "epoch": "2026-04-01T01:12:24.210144Z",
      "apogee_km": 573.7061440180796,
      "perigee_km": 570.3542173901706,
      "latitude_deg": -1.8901923929390332e-05,
      "longitude_deg": 110.67674637961727,
      "height_km": 574.5556469779629,
      "semi_major_axis_km": 6950.167180704125,
      "eccentricity": 0.00024114,
      "inclination_deg": 70.0005,
      "raan_deg": 318.1965,
      "arg_perigee_deg": 266.6286,
      "mean_anomaly_deg": 93.4597,
      "mean_motion_rev_day": 14.98338314
    },
    {
      "epoch": "2026-04-02T01:14:24.902304Z",
      "apogee_km": 573.6962512065384,
      "perigee_km": 570.3589211755416,
      "latitude_deg": -2.5288158200941194e-05,
      "longitude_deg": 106.66173945082424,
      "height_km": 574.5383477392018,
      "semi_major_axis_km": 6950.16458619104,
      "eccentricity": 0.00024009,
      "inclination_deg": 70.0002,
      "raan_deg": 315.6714,
      "arg_perigee_deg": 267.1184,
      "mean_anomaly_deg": 92.97,
      "mean_motion_rev_day": 14.98339153
    }
  ]
}